OBJECT_NAME,OBJECT_ID,EPOCH,MEAN_MOTION,ECCENTRICITY,INCLINATION,RA_OF_ASC_NODE,ARG_OF_PERICENTER,MEAN_ANOMALY,EPHEMERIS_TYPE,CLASSIFICATION_TYPE,NORAD_CAT_ID,ELEMENT_SET_NO,REV_AT_EPOCH,BSTAR,MEAN_MOTION_DOT,MEAN_MOTION_DDOT
COSMOS 2058,1990-010A,2026-06-11T04:18:12.123936,15.11970933,.00099889,82.4660,315.2802,21.7450,338.4203,0,U,20465,999,95636,.1824163E-3,.316E-4,0
SL-14 R/B,1990-010B,2026-06-11T07:12:27.583200,14.83642324,.00196229,82.5015,179.4735,356.0482,4.0575,0,U,20466,999,94236,.33740501E-4,.303E-5,0
SL-14 R/B,1990-018B,2026-06-11T04:56:10.513536,14.82212117,.00171068,82.5207,135.6985,140.0912,220.1564,0,U,20511,999,93643,.38506139E-4,.331E-5,0
HST,1990-037B,2026-06-11T05:02:46.985856,15.30680019,.00019704,28.4707,121.4212,81.6673,278.4146,0,U,20580,999,78765,.1569585E-3,.5021E-4,0
SL-16 R/B,1990-046B,2026-06-11T05:19:56.245728,14.15023467,.00138494,70.9990,101.4752,170.6780,189.4602,0,U,20625,999,86162,.17634021E-3,.294E-5,0
COSMOS 2084,1990-055A,2026-06-10T22:52:35.550336,15.06090587,.00054783,62.7912,17.3685,267.7659,92.2815,0,U,20663,999,95036,.13298196E-3,.1751E-4,0
SL-6 R/B(2),1990-055D,2026-06-11T01:34:13.232352,15.03982418,.00396618,62.7827,296.2076,4.3303,355.8132,0,U,20666,999,95223,.11256615E-3,.138E-4,0
SL-8 R/B,1990-078B,2026-06-11T07:03:38.530944,14.92087188,.03522398,82.9015,166.9681,58.2996,305.2056,0,U,20775,999,82324,.49352074E-3,.1753E-3,0
SL-8 R/B,1991-006B,2026-06-11T06:17:31.731648,13.77505476,.00234419,82.9424,100.4413,130.3413,339.1056,0,U,21088,999,77695,.19070907E-4,.35E-6,0
OKEAN-3,1991-039A,2026-06-11T05:20:24.686880,15.05297160,.00144982,82.5159,246.1649,19.6387,340.5395,0,U,21397,999,87910,.11212194E-3,.1635E-4,0
COSMOS 2151,1991-042A,2026-06-11T06:11:09.887712,15.00420414,.00137978,82.4960,353.4038,101.7435,258.5338,0,U,21422,999,87722,.10068663E-3,.1295E-4,0
SL-14 R/B,1991-042B,2026-06-11T05:03:46.290816,14.81898673,.00155638,82.4924,132.5000,296.4521,63.5095,0,U,21423,999,86692,.38714298E-4,.33E-5,0
ERS-1,1991-050A,2026-06-11T01:09:19.853280,14.39513413,.00307358,98.7797,182.5961,285.9635,73.8167,0,U,21574,999,82916,.9357478E-4,.247E-5,0
ARIANE 40 R/B,1991-050F,2026-06-11T03:43:02.614368,14.42953452,.00040073,98.1876,210.8065,134.3318,225.8202,0,U,21610,999,83247,.79665471E-4,.225E-5,0
INTERCOSMOS 25,1991-086A,2026-06-11T00:06:04.318560,12.12188133,.14842384,82.6056,253.5513,275.7431,67.6864,0,U,21819,999,50799,.78494072E-4,.393E-5,0
SL-8 R/B,1992-008B,2026-06-11T05:42:23.946624,13.75975310,.00335159,82.9264,198.2110,231.7866,199.1682,0,U,21876,999,72228,.1043594E-3,.117E-5,0
SL-8 R/B,1992-020B,2026-06-11T05:52:42.309696,13.75548258,.00300728,82.9306,84.2709,38.7297,71.9525,0,U,21938,999,71399,.24280125E-4,.39E-6,0
USA 81,1992-023A,2026-06-11T04:44:11.306112,14.32396580,.00027821,85.0078,77.4644,90.1335,270.0176,0,U,21949,999,10817,.42319997E-4,.134E-5,0
COSMOS 2219,1992-076A,2026-06-11T07:39:55.664064,14.14096101,.00163226,71.0574,182.3388,53.7516,306.5113,0,U,22219,999,73161,.7895439E-4,.103E-5,0
SL-16 R/B,1992-076B,2026-06-10T23:12:55.653984,14.16871306,.00145308,71.0005,351.8846,306.7635,159.9476,0,U,22220,999,73504,-.54457213E-4,-.157E-5,0
COSMOS 2221,1992-080A,2026-06-11T02:54:42.159456,14.96517791,.00128322,82.5031,189.5762,234.4871,125.5155,0,U,22236,999,79476,.99070939E-4,.1153E-4,0
SL-16 R/B,1992-093B,2026-06-11T07:20:56.391072,14.15463856,.00042859,71.0200,167.7375,197.6265,162.4710,0,U,22285,999,72640,-.92596313E-4,-.228E-5,0
COSMOS 2228,1992-094A,2026-06-11T04:59:19.109184,14.97564390,.00174955,82.5171,147.7699,353.0185,7.0791,0,U,22286,999,79005,.14046985E-3,.167E-4,0
SL-16 R/B,1993-016B,2026-06-10T22:22:29.284032,14.15310070,.00106177,71.0081,19.3453,192.4538,167.6324,0,U,22566,999,71536,.14351886E-3,.232E-5,0
COSMOS 2242,1993-024A,2026-06-11T07:09:31.144896,14.96885452,.00159499,82.5179,177.1769,356.5945,3.5166,0,U,22626,999,79439,.11503203E-3,.1349E-4,0
SL-16 R/B,1993-059B,2026-06-11T06:41:32.223552,14.17246170,.00150614,70.9884,173.7636,64.2561,296.0116,0,U,22803,999,69279,.16183756E-3,.279E-5,0
ARIANE 40 R/B,1993-061H,2026-06-11T04:48:14.747616,14.32905321,.00108491,98.4818,229.1814,14.1387,346.0099,0,U,22830,999,70749,.68535012E-4,.144E-5,0
COSMOS 2278,1994-023A,2026-06-11T05:39:05.738112,14.14395171,.00105871,71.0546,339.3779,249.9637,110.0347,0,U,23087,999,65803,.18656383E-3,.31E-5,0
SL-16 R/B,1994-023B,2026-06-11T05:45:26.996256,14.15021206,.00031576,70.9993,234.4212,192.1708,167.9339,0,U,23088,999,65932,.17147136E-3,.284E-5,0
SL-16 R/B,1994-074B,2026-06-11T01:25:05.471904,14.79497086,.00050908,97.6993,189.0353,279.4656,134.4038,0,U,23343,999,70105,.51813919E-4,.338E-5,0
