COSMOS 2058             
1 20465U 90010A   26162.17930699  .00003160  00000+0  18242-3 0  9997
2 20465  82.4660 315.2802 0009988  21.7450 338.4203 15.11970933956360
SL-14 R/B               
1 20466U 90010B   26162.30031925  .00000303  00000+0  33741-4 0  9995
2 20466  82.5015 179.4735 0019622 356.0482   4.0575 14.83642324942367
SL-14 R/B               
1 20511U 90018B   26162.20567724  .00000331  00000+0  38506-4 0  9999
2 20511  82.5207 135.6985 0017106 140.0912 220.1564 14.82212117936438
HST                     
1 20580U 90037B   26162.21026604  .00005021  00000+0  15696-3 0  9999
2 20580  28.4707 121.4212 0001970  81.6673 278.4146 15.30680019787654
SL-16 R/B               
1 20625U 90046B   26162.22217877  .00000294  00000+0  17634-3 0  9995
2 20625  70.9990 101.4752 0013849 170.6780 189.4602 14.15023467861621
COSMOS 2084             
1 20663U 90055A   26161.95318924  .00001751  00000+0  13298-3 0  9992
2 20663  62.7912  17.3685 0005478 267.7659  92.2815 15.06090587950363
SL-6 R/B(2)             
1 20666U 90055D   26162.06543093  .00001380  00000+0  11257-3 0  9996
2 20666  62.7827 296.2076 0039661   4.3303 355.8132 15.03982418952233
SL-8 R/B                
1 20775U 90078B   26162.29419596  .00017530  00000+0  49352-3 0  9998
2 20775  82.9015 166.9681 0352239  58.2996 305.2056 14.92087188823246
SL-8 R/B                
1 21088U 91006B   26162.26217282  .00000035  00000+0  19071-4 0  9991
2 21088  82.9424 100.4413 0023441 130.3413 339.1056 13.77505476776958
OKEAN-3                 
1 21397U 91039A   26162.22250795  .00001635  00000+0  11212-3 0  9997
2 21397  82.5159 246.1649 0014498  19.6387 340.5395 15.05297160879106
COSMOS 2151             
1 21422U 91042A   26162.25775333  .00001295  00000+0  10069-3 0  9994
2 21422  82.4960 353.4038 0013797 101.7435 258.5338 15.00420414877227
SL-14 R/B               
1 21423U 91042B   26162.21095244  .00000330  00000+0  38714-4 0  9994
2 21423  82.4924 132.5000 0015563 296.4521  63.5095 14.81898673866927
ERS-1                   
1 21574U 91050A   26162.04814645  .00000247  00000+0  93575-4 0  9998
2 21574  98.7797 182.5961 0030735 285.9635  73.8167 14.39513413829168
ARIANE 40 R/B           
1 21610U 91050F   26162.15489137  .00000225  00000+0  79665-4 0  9995
2 21610  98.1876 210.8065 0004007 134.3318 225.8202 14.42953452832471
INTERCOSMOS 25          
1 21819U 91086A   26162.00421665  .00000393  00000+0  78494-4 0  9996
2 21819  82.6056 253.5513 1484238 275.7431  67.6864 12.12188133507990
SL-8 R/B                
1 21876U 92008B   26162.23777716  .00000117  00000+0  10436-3 0  9995
2 21876  82.9264 198.2110 0033515 231.7866 199.1682 13.75975310722287
SL-8 R/B                
1 21938U 92020B   26162.24493414  .00000039  00000+0  24280-4 0  9995
2 21938  82.9306  84.2709 0030072  38.7297  71.9525 13.75548258713997
USA 81                  
1 21949U 92023A   26162.19735308  .00000134  00000+0  42320-4 0  9996
2 21949  85.0078  77.4644 0002782  90.1335 270.0176 14.32396580108178
COSMOS 2219             
1 22219U 92076A   26162.31939426  .00000103  00000+0  78954-4 0  9994
2 22219  71.0574 182.3388 0016322  53.7516 306.5113 14.14096101731610
SL-16 R/B               
1 22220U 92076B   26161.96731081 -.00000157  00000+0 -54457-4 0  9996
2 22220  71.0005 351.8846 0014530 306.7635 159.9476 14.16871306735048
COSMOS 2221             
1 22236U 92080A   26162.12132129  .00001153  00000+0  99071-4 0  9991
2 22236  82.5031 189.5762 0012832 234.4871 125.5155 14.96517791794766
SL-16 R/B               
1 22285U 92093B   26162.30620823 -.00000228  00000+0 -92596-4 0  9991
2 22285  71.0200 167.7375 0004285 197.6265 162.4710 14.15463856726405
COSMOS 2228             
1 22286U 92094A   26162.20786006  .00001670  00000+0  14047-3 0  9992
2 22286  82.5171 147.7699 0017495 353.0185   7.0791 14.97564390790053
SL-16 R/B               
1 22566U 93016B   26161.93228338  .00000232  00000+0  14352-3 0  9998
2 22566  71.0081  19.3453 0010617 192.4538 167.6324 14.15310070715365
COSMOS 2242             
1 22626U 93024A   26162.29827714  .00001349  00000+0  11503-3 0  9992
2 22626  82.5179 177.1769 0015949 356.5945   3.5166 14.96885452794390
SL-16 R/B               
1 22803U 93059B   26162.27884518  .00000279  00000+0  16184-3 0  9991
2 22803  70.9884 173.7636 0015061  64.2561 296.0116 14.17246170692794
ARIANE 40 R/B           
1 22830U 93061H   26162.20017069  .00000144  00000+0  68535-4 0  9995
2 22830  98.4818 229.1814 0010849  14.1387 346.0099 14.32905321707496
COSMOS 2278             
1 23087U 94023A   26162.23548308  .00000310  00000+0  18656-3 0  9990
2 23087  71.0546 339.3779 0010587 249.9637 110.0347 14.14395171658031
SL-16 R/B               
1 23088U 94023B   26162.23989579  .00000284  00000+0  17147-3 0  9994
2 23088  70.9993 234.4212 0003157 192.1708 167.9339 14.15021206659327
SL-16 R/B               
1 23343U 94074B   26162.05909111  .00000338  00000+0  51814-4 0  9998
2 23343  97.6993 189.0353 0005090 279.4656 134.4038 14.79497086701053
